OOV-CUBE (TUBSAT-30)    
1 60240U 24128F   26087.53237420  .00002300  00000+0  18378-3 0  9992
2 60240  61.9947 146.7290 0052931 116.2323 244.4223 15.02370641 93997
OBJECT A                
1 68408U 26065A   26087.94058999  .00001379  00000+0  70532-4 0  9991
2 68408  97.4112 330.1101 0015809 287.1112  72.8390 15.18211376    88
